NORAD_CAT_ID,OBJECT_NAME,OBJECT_TYPE,EPOCH,MEAN_MOTION,ECCENTRICITY,INCLINATION,RA_OF_ASC_NODE,ARG_OF_PERICENTER,MEAN_ANOMALY,BSTAR,MEAN_MOTION_DOT,MEAN_MOTION_DDOT,TLE_LINE0,TLE_LINE1,TLE_LINE2,SEMIMAJOR_AXIS,PERIOD,APOGEE,PERIGEE,DECAYED
56460.0,STARLINK-6047,PAYLOAD,2024-06-28 04:45:48,14.98325852,0.0003238,69.9991,266.3551,269.3492,90.7296,9.4845e-05,1.039e-05,0.0,0 STARLINK-6047,1 56460U 23064N   24180.19847239  .00001039  00000-0  94845-4 0  9991,2 56460  69.9991 266.3551 0003238 269.3492  90.7296 14.98325852 62812,6950.206,96.107,574.321,569.82,0.0
56460.0,STARLINK-6047,PAYLOAD,2024-06-28 12:46:27,14.98337451,0.0003368,69.9987,265.5129,269.9851,90.0922,0.00015624,1.772e-05,0.0,0 STARLINK-6047,1 56460U 23064N   24180.53226456  .00001772  00000-0  15624-3 0  9992,2 56460  69.9987 265.5129 0003368 269.9851  90.0922 14.98337451 62860,6950.17,96.107,574.376,569.694,0.0
56460.0,STARLINK-6047,PAYLOAD,2024-06-28 14:22:35,14.9834126,0.0003352,69.9987,265.3444,269.9941,90.0834,0.00020021,2.297e-05,0.0,0 STARLINK-6047,1 56460U 23064N   24180.59902125  .00002297  00000-0  20021-3 0  9992,2 56460  69.9987 265.3444 0003352 269.9941  90.0834 14.98341260 62518,6950.158,96.106,574.353,569.693,0.0
56460.0,STARLINK-6047,PAYLOAD,2024-06-28 20:47:07,14.98351104,0.0003383,69.9996,264.6707,270.4685,89.6086,0.00038974,4.563e-05,0.0,0 STARLINK-6047,1 56460U 23064N   24180.86605703  .00004563  00000-0  38974-3 0  9998,2 56460  69.9996 264.6707 0003383 270.4685  89.6086 14.98351104 62913,6950.128,96.106,574.344,569.641,0.0
56460.0,STARLINK-6047,PAYLOAD,2024-06-28 22:23:16,14.98326399,0.0003266,69.9996,264.5028,271.4098,88.6687,-7.4961e-05,-9.87e-06,0.0,0 STARLINK-6047,1 56460U 23064N   24180.93283037 -.00000987  00000-0 -74961-4 0  9993,2 56460  69.9996 264.5028 0003266 271.4098  88.6687 14.98326399 62562,6950.204,96.107,574.339,569.799,0.0
56460.0,STARLINK-6047,PAYLOAD,2024-06-29 04:47:48,14.98333803,0.0003258,69.9997,263.8295,270.0442,90.0344,4.8693e-05,4.88e-06,0.0,0 STARLINK-6047,1 56460U 23064N   24181.19986671  .00000488  00000-0  48693-4 0  9993,2 56460  69.9997 263.8295 0003258 270.0442  90.0344 14.98333803 62969,6950.181,96.107,574.31,569.782,0.0
56460.0,STARLINK-6047,PAYLOAD,2024-06-29 14:24:36,14.98342269,0.0003201,70.0,262.8196,270.8419,89.2373,0.00064924,7.665e-05,0.0,0 STARLINK-6047,1 56460U 23064N   24181.60042364  .00007665  00000-0  64924-3 0  9999,2 56460  70.0000 262.8196 0003201 270.8419  89.2373 14.98342269 62661,6950.155,96.106,574.245,569.795,0.0
56460.0,STARLINK-6047,PAYLOAD,2024-06-29 19:13:00,14.98347382,0.0003189,69.9999,262.3144,271.1131,88.9663,0.00091232,0.00010814,0.0,0 STARLINK-6047,1 56460U 23064N   24181.80070186  .00010814  00000-0  91232-3 0  9996,2 56460  69.9999 262.3144 0003189 271.1131  88.9663 14.98347382 63056,6950.139,96.106,574.221,569.788,0.0
56460.0,STARLINK-6047,PAYLOAD,2024-06-30 04:49:49,14.98325672,0.0003163,70.0,261.3046,268.3596,91.7201,0.00010513,1.161e-05,0.0,0 STARLINK-6047,1 56460U 23064N   24182.20126748  .00001161  00000-0  10513-3 0  9995,2 56460  70.0000 261.3046 0003163 268.3596  91.7201 14.98325672 63112,6950.206,96.107,574.27,569.873,0.0
56460.0,STARLINK-6047,PAYLOAD,2024-06-30 14:26:37,14.98337293,0.0003192,70.0,260.2944,267.6587,92.4206,0.00082749,9.796e-05,0.0,0 STARLINK-6047,1 56460U 23064N   24182.60182717  .00009796  00000-0  82749-3 0  9999,2 56460  70.0000 260.2944 0003192 267.6587  92.4206 14.98337293 62812,6950.17,96.107,574.254,569.817,0.0
56460.0,STARLINK-6047,PAYLOAD,2024-06-30 19:15:01,14.98342031,0.0003209,70.0,259.7892,267.6573,92.4218,0.0010452,0.00012404,0.0,0 STARLINK-6047,1 56460U 23064N   24182.80210625  .00012404  00000-0  10452-2 0  9992,2 56460  70.0000 259.7892 0003209 267.6573  92.4218 14.98342031 63204,6950.156,96.106,574.251,569.79,0.0
56460.0,STARLINK-6047,PAYLOAD,2024-07-01 04:51:50,14.98327614,0.0003205,70.0001,258.7794,268.9656,91.1136,0.00040031,4.686e-05,0.0,0 STARLINK-6047,1 56460U 23064N   24183.20267059  .00004686  00000-0  40031-3 0  9990,2 56460  70.0001 258.7794 0003205 268.9656  91.1136 14.98327614 63268,6950.2,96.107,574.293,569.838,0.0
56460.0,STARLINK-6047,PAYLOAD,2024-07-01 14:28:39,14.98336688,0.0003252,70.0002,257.7696,268.6136,91.465,0.00065999,7.792e-05,0.0,0 STARLINK-6047,1 56460U 23064N   24183.60322934  .00007792  00000-0  65999-3 0  9999,2 56460  70.0002 257.7696 0003252 268.6136  91.4650 14.98336688 62962,6950.172,96.107,574.297,569.777,0.0
56460.0,STARLINK-6047,PAYLOAD,2024-07-01 19:17:03,14.98344073,0.0003259,70.0,257.2642,268.0107,92.0679,0.00082772,9.801e-05,0.0,0 STARLINK-6047,1 56460U 23064N   24183.80350719  .00009801  00000-0  82772-3 0  9994,2 56460  70.0000 257.2642 0003259 268.0107  92.0679 14.98344073 62993,6950.149,96.106,574.279,569.749,0.0
56460.0,STARLINK-6047,PAYLOAD,2024-07-02 04:53:51,14.98327644,0.0003263,70.0001,256.2541,269.1497,90.9288,9.6837e-05,1.063e-05,0.0,0 STARLINK-6047,1 56460U 23064N   24184.20407173  .00001063  00000-0  96837-4 0  9996,2 56460  70.0001 256.2541 0003263 269.1497  90.9288 14.98327644 63416,6950.2,96.107,574.333,569.797,0.0
56460.0,STARLINK-6047,PAYLOAD,2024-07-02 14:30:40,14.98333047,0.0003218,69.9998,255.2446,268.9049,91.1741,0.00032835,3.827e-05,0.0,0 STARLINK-6047,1 56460U 23064N   24184.60463137  .00003827  00000-0  32835-3 0  9999,2 56460  69.9998 255.2446 0003218 268.9049  91.1741 14.98333047 63119,6950.183,96.107,574.285,569.812,0.0
56460.0,STARLINK-6047,PAYLOAD,2024-07-02 17:42:56,14.98336495,0.0003252,69.9998,254.9076,269.4672,90.6114,0.00029935,3.481e-05,0.0,0 STARLINK-6047,1 56460U 23064N   24184.73814936  .00003481  00000-0  29935-3 0  9993,2 56460  69.9998 254.9076 0003252 269.4672  90.6114 14.98336495 63130,6950.173,96.107,574.298,569.778,0.0
56460.0,STARLINK-6047,PAYLOAD,2024-07-03 04:55:52,14.98330264,0.0003232,69.9998,253.7293,269.4959,90.583,0.00014671,1.658e-05,0.0,0 STARLINK-6047,1 56460U 23064N   24185.20547206  .00001658  00000-0  14671-3 0  9994,2 56460  69.9998 253.7293 0003232 269.4959  90.5830 14.98330264 63563,6950.192,96.107,574.303,569.811,0.0
56460.0,STARLINK-6047,PAYLOAD,2024-07-03 14:32:40,14.98337084,0.0003232,69.9994,252.7197,270.1549,89.9239,0.00023642,2.73e-05,0.0,0 STARLINK-6047,1 56460U 23064N   24185.60602869  .00002730  00000-0  23642-3 0  9995,2 56460  69.9994 252.7197 0003232 270.1549  89.9239 14.98337084 63264,6950.171,96.107,574.282,569.79,0.0
56460.0,STARLINK-6047,PAYLOAD,2024-07-04 04:57:53,14.98332705,0.0003182,69.9998,251.2047,270.1436,89.9359,0.00023115,2.666e-05,0.0,0 STARLINK-6047,1 56460U 23064N   24186.20687055  .00002666  00000-0  23115-3 0  9995,2 56460  69.9998 251.2047 0003182 270.1436  89.9359 14.98332705 63713,6950.185,96.107,574.261,569.838,0.0
56460.0,STARLINK-6047,PAYLOAD,2024-07-04 14:34:41,14.9833946,0.0003207,69.9998,250.1947,270.2194,89.8598,0.00025793,2.987e-05,0.0,0 STARLINK-6047,1 56460U 23064N   24186.60742637  .00002987  00000-0  25793-3 0  9997,2 56460  69.9998 250.1947 0003207 270.2194  89.8598 14.98339460 63416,6950.164,96.106,574.258,569.8,0.0
56460.0,STARLINK-6047,PAYLOAD,2024-07-04 20:59:13,14.98337416,0.0003221,69.9997,249.521,271.7782,88.3008,0.00017184,1.958e-05,0.0,0 STARLINK-6047,1 56460U 23064N   24186.87446628  .00001958  00000-0  17184-3 0  9999,2 56460  69.9997 249.5210 0003221 271.7782  88.3008 14.98337416 63458,6950.17,96.107,574.274,569.796,0.0
56460.0,STARLINK-6047,PAYLOAD,2024-07-05 04:59:54,14.98333577,0.0003182,69.9994,248.6796,271.1789,88.9006,0.0001183,1.319e-05,0.0,0 STARLINK-6047,1 56460U 23064N   24187.20826764  .00001319  00000-0  11830-3 0  9993,2 56460  69.9994 248.6796 0003182 271.1789  88.9006 14.98333577 63864,6950.182,96.107,574.258,569.835,0.0
56460.0,STARLINK-6047,PAYLOAD,2024-07-05 14:36:42,14.98339235,0.0003117,69.9996,247.67,270.4373,89.6429,0.00016353,1.859e-05,0.0,0 STARLINK-6047,1 56460U 23064N   24187.60882325  .00001859  00000-0  16353-3 0  9996,2 56460  69.9996 247.6700 0003117 270.4373  89.6429 14.98339235 63560,6950.164,96.106,574.196,569.863,0.0
56460.0,STARLINK-6047,PAYLOAD,2024-07-05 21:01:14,14.98335193,0.0003167,69.9993,246.9965,270.1994,89.8802,2.6537e-05,2.24e-06,0.0,0 STARLINK-6047,1 56460U 23064N   24187.87586415  .00000224  00000-0  26537-4 0  9997,2 56460  69.9993 246.9965 0003167 270.1994  89.8802 14.98335193 63604,6950.177,96.107,574.243,569.841,0.0
56460.0,STARLINK-6047,PAYLOAD,2024-07-06 05:01:55,14.98328404,0.000314,69.9993,246.1552,267.8674,92.2126,4.0303e-06,-4.5e-07,0.0,0 STARLINK-6047,1 56460U 23064N   24188.20966728 -.00000045  00000-0  40303-5 0  9994,2 56460  69.9993 246.1552 0003140 267.8674  92.2126 14.98328404 64017,6950.198,96.107,574.245,569.88,0.0
56460.0,STARLINK-6047,PAYLOAD,2024-07-06 13:02:35,14.98330429,0.0003104,69.9984,245.3136,267.2439,92.8365,2.1147e-05,1.59e-06,0.0,0 STARLINK-6047,1 56460U 23064N   24188.54346764  .00000159  00000-0  21147-4 0  9992,2 56460  69.9984 245.3136 0003104 267.2439  92.8365 14.98330429 63705,6950.192,96.107,574.214,569.899,0.0
56460.0,STARLINK-6047,PAYLOAD,2024-07-06 21:03:15,14.98330775,0.0003121,69.9984,244.4718,268.0909,91.9893,-9.3408e-06,-2.04e-06,0.0,0 STARLINK-6047,1 56460U 23064N   24188.87726767 -.00000204  00000-0 -93408-5 0  9996,2 56460  69.9984 244.4718 0003121 268.0909  91.9893 14.98330775 63756,6950.19,96.107,574.225,569.886,0.0
56460.0,STARLINK-6047,PAYLOAD,2024-07-07 05:03:56,14.983284,0.0003084,69.9984,243.6301,266.8106,93.2701,2.1238e-05,1.6e-06,0.0,0 STARLINK-6047,1 56460U 23064N   24189.21106851  .00000160  00000-0  21238-4 0  9991,2 56460  69.9984 243.6301 0003084 266.8106  93.2701 14.98328400 64169,6950.198,96.107,574.206,569.919,0.0
56460.0,STARLINK-6047,PAYLOAD,2024-07-07 13:04:36,14.98331577,0.0003135,69.9983,242.7884,267.9634,92.1166,6.7961e-06,-1.2e-07,0.0,0 STARLINK-6047,1 56460U 23064N   24189.54486677 -.00000012  00000-0  67961-5 0  9995,2 56460  69.9983 242.7884 0003135 267.9634  92.1166 14.98331577 63856,6950.188,96.107,574.232,569.874,0.0
